{
    "links": {
        "self": "http://www.neowsapp.com/rest/v1/neo/54075549?api_key=iIulBulltgU6a56xZRHN4H3l9WmuAYTsLGpBGhQ2"
    },
    "id": "54075549",
    "neo_reference_id": "54075549",
    "name": "(2020 UD2)",
    "designation": "2020 UD2",
    "nasa_jpl_url": "http://ssd.jpl.nasa.gov/sbdb.cgi?sstr=54075549",
    "absolute_magnitude_h": 24.95,
    "estimated_diameter": {
        "kilometers": {
            "estimated_diameter_min": 0.0271991277,
            "estimated_diameter_max": 0.0608190985
        },
        "meters": {
            "estimated_diameter_min": 27.1991277348,
            "estimated_diameter_max": 60.8190985438
        },
        "miles": {
            "estimated_diameter_min": 0.0169007492,
            "estimated_diameter_max": 0.0377912241
        },
        "feet": {
            "estimated_diameter_min": 89.2359862375,
            "estimated_diameter_max": 199.5377312663
        }
    },
    "is_potentially_hazardous_asteroid": false,
    "close_approach_data": [
        {
            "close_approach_date": "2020-10-11",
            "close_approach_date_full": "2020-Oct-11 15:58",
            "epoch_date_close_approach": 1602431880000,
            "relative_velocity": {
                "kilometers_per_second": "9.7309542972",
                "kilometers_per_hour": "35031.4354698358",
                "miles_per_hour": "21767.1716673544"
            },
            "miss_distance": {
                "astronomical": "0.0239384025",
                "lunar": "9.3120385725",
                "kilometers": "3581134.025202675",
                "miles": "2225213.498739915"
            },
            "orbiting_body": "Earth"
        }
    ],
    "orbital_data": {
        "orbit_id": "2",
        "orbit_determination_date": "2020-10-20 07:21:11",
        "first_observation_date": "2020-10-14",
        "last_observation_date": "2020-10-20",
        "data_arc_in_days": 6,
        "observations_used": 21,
        "orbit_uncertainty": "8",
        "minimum_orbit_intersection": ".0217456",
        "jupiter_tisserand_invariant": "3.778",
        "epoch_osculation": "2459138.5",
        "eccentricity": ".4877478295536144",
        "semi_major_axis": "1.900643224690586",
        "inclination": "9.729664114780123",
        "ascending_node_longitude": "25.36824504077085",
        "orbital_period": "957.0823992137745",
        "perihelion_distance": ".97360861709197",
        "perihelion_argument": "326.5947079423896",
        "aphelion_distance": "2.827677832289202",
        "perihelion_time": "2459112.081482894175",
        "mean_anomaly": "9.937144561335407",
        "mean_motion": ".3761431620681076",
        "equinox": "J2000",
        "orbit_class": {
            "orbit_class_type": "APO",
            "orbit_class_description": "Near-Earth asteroid orbits which cross the Earth’s orbit similar to that of 1862 Apollo",
            "orbit_class_range": "a (semi-major axis) > 1.0 AU; q (perihelion) < 1.017 AU"
        }
    },
    "is_sentry_object": false
}